{
  "type": "FeatureCollection",
  "features": [
    {
      "type": "Feature",
      "properties": {
        "norad_id": 50032,
        "name": "COSMOS 1408 DEB",
        "group": "cosmos-1408-debris",
        "lat": -67.29365442346311,
        "lon": -116.19591701916924,
        "alt_km": 435.4942545442491,
        "timestamp": "2025-12-25T07:41:09.993536+00:00",
        "meta_object_name": "COSMOS 1408 DEB",
        "meta_object_id": "1982-092RU",
        "meta_epoch": "2025-12-24T15:04:46.514496",
        "meta_mean_motion": 15.4580971,
        "meta_eccentricity": 0.00164657,
        "meta_inclination": 82.5629,
        "meta_ra_of_asc_node": 46.3227,
        "meta_arg_of_pericenter": 164.7636,
        "meta_mean_anomaly": 195.4112,
        "meta_ephemeris_type": 0,
        "meta_classification_type": "U",
        "meta_norad_cat_id": 50032,
        "meta_element_set_no": 999,
        "meta_rev_at_epoch": 22787,
        "meta_bstar": 0.00010709646,
        "meta_mean_motion_dot": 5.256e-05,
        "meta_mean_motion_ddot": 0,
        "tle_line1": "1 50032U 82092RU  25358.62831614  .00005256  00000+0  10710-3 0  9994",
        "tle_line2": "2 50032  82.5629  46.3227 0016465 164.7636 195.4112 15.45809710227872"
      },
      "geometry": {
        "type": "Point",
        "coordinates": [
          -116.19591701916924,
          -67.29365442346311
        ]
      }
    },
    {
      "type": "Feature",
      "properties": {
        "norad_id": 50058,
        "name": "COSMOS 1408 DEB",
        "group": "cosmos-1408-debris",
        "lat": -36.278202517437755,
        "lon": -118.36761700239283,
        "alt_km": 390.151742985915,
        "timestamp": "2025-12-25T07:41:09.993557+00:00",
        "meta_object_name": "COSMOS 1408 DEB",
        "meta_object_id": "1982-092SW",
        "meta_epoch": "2025-12-24T15:25:02.007840",
        "meta_mean_motion": 15.6481298,
        "meta_eccentricity": 0.00158336,
        "meta_inclination": 82.6118,
        "meta_ra_of_asc_node": 56.8774,
        "meta_arg_of_pericenter": 58.7344,
        "meta_mean_anomaly": 301.5464,
        "meta_ephemeris_type": 0,
        "meta_classification_type": "U",
        "meta_norad_cat_id": 50058,
        "meta_element_set_no": 999,
        "meta_rev_at_epoch": 22990,
        "meta_bstar": 0.0003402487,
        "meta_mean_motion_dot": 0.00033436,
        "meta_mean_motion_ddot": 0,
        "tle_line1": "1 50058U 82092SW  25358.64238435  .00033436  00000+0  34025-3 0  9992",
        "tle_line2": "2 50058  82.6118  56.8774 0015833  58.7344 301.5464 15.64812980229903"
      },
      "geometry": {
        "type": "Point",
        "coordinates": [
          -118.36761700239283,
          -36.278202517437755
        ]
      }
    },
    {
      "type": "Feature",
      "properties": {
        "norad_id": 50404,
        "name": "COSMOS 1408 DEB",
        "group": "cosmos-1408-debris",
        "lat": -59.71670915967905,
        "lon": 35.70738598083063,
        "alt_km": 513.742070247582,
        "timestamp": "2025-12-25T07:41:09.993570+00:00",
        "meta_object_name": "COSMOS 1408 DEB",
        "meta_object_id": "1982-092ADS",
        "meta_epoch": "2025-12-24T21:07:59.963232",
        "meta_mean_motion": 15.1571343,
        "meta_eccentricity": 0.0166865,
        "meta_inclination": 82.202,
        "meta_ra_of_asc_node": 202.5864,
        "meta_arg_of_pericenter": 157.1194,
        "meta_mean_anomaly": 203.7589,
        "meta_ephemeris_type": 0,
        "meta_classification_type": "U",
        "meta_norad_cat_id": 50404,
        "meta_element_set_no": 999,
        "meta_rev_at_epoch": 21377,
        "meta_bstar": 0.0034307677,
        "meta_mean_motion_dot": 0.00094276,
        "meta_mean_motion_ddot": 0,
        "tle_line1": "1 50404U 82092ADS 25358.88055513  .00094276  00000+0  34308-2 0  9999",
        "tle_line2": "2 50404  82.2020 202.5864 0166865 157.1194 203.7589 15.15713430213770"
      },
      "geometry": {
        "type": "Point",
        "coordinates": [
          35.70738598083063,
          -59.71670915967905
        ]
      }
    },
    {
      "type": "Feature",
      "properties": {
        "norad_id": 50621,
        "name": "COSMOS 1408 DEB",
        "group": "cosmos-1408-debris",
        "lat": -72.46512669786992,
        "lon": -94.52165026274211,
        "alt_km": 419.2784740843417,
        "timestamp": "2025-12-25T07:41:09.993582+00:00",
        "meta_object_name": "COSMOS 1408 DEB",
        "meta_object_id": "1982-092ALR",
        "meta_epoch": "2025-12-24T10:33:08.293248",
        "meta_mean_motion": 15.57249647,
        "meta_eccentricity": 0.00291087,
        "meta_inclination": 82.5683,
        "meta_ra_of_asc_node": 61.9949,
        "meta_arg_of_pericenter": 110.4695,
        "meta_mean_anomaly": 249.969,
        "meta_ephemeris_type": 0,
        "meta_classification_type": "U",
        "meta_norad_cat_id": 50621,
        "meta_element_set_no": 999,
        "meta_rev_at_epoch": 22432,
        "meta_bstar": 0.00038535081,
        "meta_mean_motion_dot": 0.00028709,
        "meta_mean_motion_ddot": 0,
        "tle_line1": "1 50621U 82092ALR 25358.43967932  .00028709  00000+0  38535-3 0  9993",
        "tle_line2": "2 50621  82.5683  61.9949 0029108 110.4695 249.9690 15.57249647224324"
      },
      "geometry": {
        "type": "Point",
        "coordinates": [
          -94.52165026274211,
          -72.46512669786992
        ]
      }
    }
  ]
}